NORAD_CAT_ID,OBJECT_NAME,OBJECT_TYPE,EPOCH,MEAN_MOTION,ECCENTRICITY,INCLINATION,RA_OF_ASC_NODE,ARG_OF_PERICENTER,MEAN_ANOMALY,BSTAR,MEAN_MOTION_DOT,MEAN_MOTION_DDOT,TLE_LINE0,TLE_LINE1,TLE_LINE2,SEMIMAJOR_AXIS,PERIOD,APOGEE,PERIGEE,DECAYED
51720.0,STARLINK-3526,PAYLOAD,2023-03-08 18:51:10,15.0884065,0.0001455,53.2151,213.3152,93.9224,266.1934,5.8973e-05,6.51e-06,0.0,0 STARLINK-3526,1 51720U 22016G   23067.78554072  .00000651  00000-0  58973-4 0  9990,2 51720  53.2151 213.3152 0001455  93.9224 266.1934 15.08840650 58882,6917.878,95.438,540.75,538.737,0.0
51720.0,STARLINK-3526,PAYLOAD,2023-03-09 09:09:39,15.08838356,0.0001688,53.2175,210.6385,80.1123,280.006,5.9315e-05,6.56e-06,0.0,0 STARLINK-3526,1 51720U 22016G   23068.38170546  .00000656  00000-0  59315-4 0  9993,2 51720  53.2175 210.6385 0001688  80.1123 280.0060 15.08838356 58975,6917.885,95.438,540.918,538.583,0.0
51720.0,STARLINK-3526,PAYLOAD,2023-03-10 15:21:58,15.08843367,0.0001628,53.2161,204.9869,100.5921,259.5255,0.00020305,2.945e-05,0.0,0 STARLINK-3526,1 51720U 22016G   23069.64026377  .00002945  00000-0  20305-3 0  9994,2 51720  53.2161 204.9869 0001628 100.5921 259.5255 15.08843367 59167,6917.87,95.437,540.861,538.609,0.0
51720.0,STARLINK-3526,PAYLOAD,2023-03-11 02:29:41,15.08835734,0.0001559,53.2132,202.906,95.2556,264.8614,3.5977e-05,2.85e-06,0.0,0 STARLINK-3526,1 51720U 22016G   23070.10394763  .00000285  00000-0  35977-4 0  9991,2 51720  53.2132 202.9060 0001559  95.2556 264.8614 15.08835734 59238,6917.893,95.438,540.837,538.68,0.0
51720.0,STARLINK-3526,PAYLOAD,2023-03-11 10:26:37,15.08825906,0.0001159,53.2133,201.4191,103.2139,256.8983,0.00032315,4.857e-05,0.0,0 STARLINK-3526,1 51720U 22016G   23070.43515395  .00004857  00000-0  32315-3 0  9994,2 51720  53.2133 201.4191 0001159 103.2139 256.8983 15.08825906 59286,6917.923,95.438,540.59,538.987,0.0
51720.0,STARLINK-3526,PAYLOAD,2023-03-11 12:02:01,15.08812555,0.0001104,53.2128,201.1225,108.801,251.3102,0.00081538,0.00012703,0.0,0 STARLINK-3526,1 51720U 22016G   23070.50140219  .00012703  00000-0  81538-3 0  9991,2 51720  53.2128 201.1225 0001104 108.8010 251.3102 15.08812555 58237,6917.964,95.439,540.593,539.066,0.0
51720.0,STARLINK-3526,PAYLOAD,2023-03-11 18:23:31,15.08852162,0.0001246,53.2166,199.9347,107.2535,252.8593,0.00015945,2.251e-05,0.0,0 STARLINK-3526,1 51720U 22016G   23070.76633476  .00002251  00000-0  15945-3 0  9997,2 51720  53.2166 199.9347 0001246 107.2535 252.8593 15.08852162 59330,6917.843,95.437,540.57,538.846,0.0
51720.0,STARLINK-3526,PAYLOAD,2023-03-11 19:58:53,15.08858066,0.0001022,53.2159,199.6352,117.4544,242.6552,0.00018143,2.602e-05,0.0,0 STARLINK-3526,1 51720U 22016G   23070.83256804  .00002602  00000-0  18143-3 0  9994,2 51720  53.2159 199.6352 0001022 117.4544 242.6552 15.08858066 58284,6917.825,95.436,540.397,538.983,0.0
51720.0,STARLINK-3526,PAYLOAD,2023-03-12 10:17:24,15.08822061,0.0001049,53.2152,196.9602,109.7319,250.3786,-2.7256e-05,-7.21e-06,0.0,0 STARLINK-3526,1 51720U 22016G   23071.42876002 -.00000721  00000-0 -27256-4 0  9996,2 51720  53.2152 196.9602 0001049 109.7319 250.3786 15.08822061 58379,6917.935,95.439,540.526,539.075,0.0
51720.0,STARLINK-3526,PAYLOAD,2023-03-12 13:28:11,15.08826825,0.0001125,53.2172,196.3682,80.1722,279.9397,-1.1449e-05,-4.7e-06,0.0,0 STARLINK-3526,1 51720U 22016G   23071.56123891 -.00000470  00000-0 -11449-4 0  9990,2 51720  53.2172 196.3682 0001125  80.1722 279.9397 15.08826825 59455,6917.921,95.438,540.564,539.007,0.0
51720.0,STARLINK-3526,PAYLOAD,2023-03-12 18:14:19,15.08839164,0.0001327,53.2147,195.4706,128.227,231.8841,0.00010448,1.375e-05,0.0,0 STARLINK-3526,1 51720U 22016G   23071.75994691  .00001375  00000-0  10448-3 0  9995,2 51720  53.2147 195.4706 0001327 128.2270 231.8841 15.08839164 59484,6917.883,95.438,540.666,538.83,0.0
51720.0,STARLINK-3526,PAYLOAD,2023-03-13 11:43:34,15.08830965,0.0001436,53.2155,192.1983,123.5964,236.5166,5.6933e-05,6.18e-06,0.0,0 STARLINK-3526,1 51720U 22016G   23072.48859621  .00000618  00000-0  56933-4 0  9998,2 51720  53.2155 192.1983 0001436 123.5964 236.5166 15.08830965 59597,6917.908,95.438,540.766,538.78,0.0
51720.0,STARLINK-3526,PAYLOAD,2023-03-14 14:45:07,15.08840914,8.56e-05,53.217,187.1499,93.175,266.934,0.00019016,2.74e-05,0.0,0 STARLINK-3526,1 51720U 22016G   23073.61467146  .00002740  00000-0  19016-3 0  9999,2 51720  53.2170 187.1499 0000856  93.1750 266.9340 15.08840914 59765,6917.878,95.437,540.335,539.15,0.0
51720.0,STARLINK-3526,PAYLOAD,2023-03-14 16:20:30,15.08849132,0.0001094,53.2176,186.8514,96.6049,263.5068,0.00019217,2.773e-05,0.0,0 STARLINK-3526,1 51720U 22016G   23073.68090619  .00002773  00000-0  19217-3 0  9992,2 51720  53.2176 186.8514 0001094  96.6049 263.5068 15.08849132 59771,6917.852,95.437,540.474,538.961,0.0
51720.0,STARLINK-3526,PAYLOAD,2023-03-15 13:00:29,15.08871122,0.0001068,53.2159,182.983,97.7297,262.3816,0.00031808,4.782e-05,0.0,0 STARLINK-3526,1 51720U 22016G   23074.54200476  .00004782  00000-0  31808-3 0  9994,2 51720  53.2159 182.9830 0001068  97.7297 262.3816 15.08871122 59905,6917.785,95.436,540.389,538.911,0.0
51720.0,STARLINK-3526,PAYLOAD,2023-03-15 16:11:14,15.08878471,9.9e-05,53.2162,182.388,85.8018,274.3087,0.00037174,5.64e-05,0.0,0 STARLINK-3526,1 51720U 22016G   23074.67447688  .00005640  00000-0  37174-3 0  9992,2 51720  53.2162 182.3880 0000990  85.8018 274.3087 15.08878471 58861,6917.763,95.435,540.313,538.943,0.0
51720.0,STARLINK-3526,PAYLOAD,2023-03-16 00:08:12,15.08854535,9.41e-05,53.2158,180.9018,85.3987,274.7112,-4.1151e-05,-9.43e-06,0.0,0 STARLINK-3526,1 51720U 22016G   23075.00570040 -.00000943  00000-0 -41151-4 0  9993,2 51720  53.2158 180.9018 0000941  85.3987 274.7112 15.08854535 59970,6917.836,95.437,540.352,539.05,0.0
51720.0,STARLINK-3526,PAYLOAD,2023-03-16 11:15:55,15.08841635,0.0001592,53.2157,178.8203,86.0847,274.0327,-0.00012589,-2.291e-05,0.0,0 STARLINK-3526,1 51720U 22016G   23075.46939016 -.00002291  00000-0 -12589-3 0  9995,2 51720  53.2157 178.8203 0001592  86.0847 274.0327 15.08841635 60045,6917.875,95.437,540.842,538.639,0.0
51720.0,STARLINK-3526,PAYLOAD,2023-03-16 14:26:41,15.08841597,0.0001864,53.2152,178.2254,84.0091,276.1113,-0.00012941,-2.347e-05,0.0,0 STARLINK-3526,1 51720U 22016G   23075.60187041 -.00002347  00000-0 -12941-3 0  9998,2 51720  53.2152 178.2254 0001864  84.0091 276.1113 15.08841597 59008,6917.876,95.437,541.03,538.451,0.0
51720.0,STARLINK-3526,PAYLOAD,2023-03-17 12:42:06,15.0884272,0.000138,53.2168,174.0629,92.6592,267.4558,-0.00032671,-5.484e-05,0.0,0 STARLINK-3526,1 51720U 22016G   23076.52923757 -.00005484  00000-0 -32671-3 0  9999,2 51720  53.2168 174.0629 0001380  92.6592 267.4558 15.08842720 60208,6917.872,95.437,540.692,538.782,0.0
51720.0,STARLINK-3526,PAYLOAD,2023-03-18 12:32:51,15.08849534,0.000191,53.214,169.6002,95.4244,264.6966,0.00028828,4.304e-05,0.0,0 STARLINK-3526,1 51720U 22016G   23077.52281522  .00004304  00000-0  28828-3 0  9994,2 51720  53.2140 169.6002 0001910  95.4244 264.6966 15.08849534 60355,6917.851,95.437,541.038,538.395,0.0
51720.0,STARLINK-3526,PAYLOAD,2023-03-18 17:18:59,15.08859699,0.0002042,53.2169,168.7068,89.6282,270.4945,0.00032603,4.907e-05,0.0,0 STARLINK-3526,1 51720U 22016G   23077.72152738  .00004907  00000-0  32603-3 0  9997,2 51720  53.2169 168.7068 0002042  89.6282 270.4945 15.08859699 60380,6917.82,95.436,541.098,538.273,0.0
51720.0,STARLINK-3526,PAYLOAD,2023-03-19 06:02:08,15.0881741,0.0001291,53.2177,166.3329,78.1625,281.9512,4.3237e-06,-2.19e-06,0.0,0 STARLINK-3526,1 51720U 22016G   23078.25148682 -.00000219  00000-0  43237-5 0  9999,2 51720  53.2177 166.3329 0001291  78.1625 281.9512 15.08817410 60463,6917.949,95.439,540.708,538.921,0.0
51720.0,STARLINK-3526,PAYLOAD,2023-03-19 12:23:41,15.08820353,0.0001367,53.217,165.1396,101.4034,258.7111,-7.0215e-05,-1.405e-05,0.0,0 STARLINK-3526,1 51720U 22016G   23078.51644916 -.00001405  00000-0 -70215-4 0  9993,2 51720  53.2170 165.1396 0001367 101.4034 258.7111 15.08820353 59448,6917.94,95.439,540.751,538.86,0.0
51720.0,STARLINK-3526,PAYLOAD,2023-03-19 17:09:50,15.08824409,0.0001476,53.2169,164.2466,108.5715,251.5437,-3.3483e-05,-8.21e-06,0.0,0 STARLINK-3526,1 51720U 22016G   23078.71516697 -.00000821  00000-0 -33483-4 0  9996,2 51720  53.2169 164.2466 0001476 108.5715 251.5437 15.08824409 59470,6917.928,95.439,540.814,538.772,0.0
51720.0,STARLINK-3526,PAYLOAD,2023-03-20 05:52:54,15.08846284,0.0001209,53.2174,161.8694,98.3726,261.7403,-0.00011947,-2.189e-05,0.0,0 STARLINK-3526,1 51720U 22016G   23079.24507903 -.00002189  00000-0 -11947-3 0  9994,2 51720  53.2174 161.8694 0001209  98.3726 261.7403 15.08846284 60613,6917.861,95.437,540.563,538.89,0.0
51720.0,STARLINK-3526,PAYLOAD,2023-03-20 12:14:26,15.0885822,0.0001299,53.2158,160.6824,91.0991,269.015,4.4928e-05,4.28e-06,0.0,0 STARLINK-3526,1 51720U 22016G   23079.51002769  .00000428  00000-0  44928-4 0  9992,2 51720  53.2158 160.6824 0001299  91.0991 269.0150 15.08858220 60657,6917.825,95.436,540.588,538.791,0.0
51720.0,STARLINK-3526,PAYLOAD,2023-03-20 15:25:12,15.08863851,0.0001344,53.2166,160.087,92.4444,267.6702,9.9547e-05,1.298e-05,0.0,0 STARLINK-3526,1 51720U 22016G   23079.64250062  .00001298  00000-0  99547-4 0  9990,2 51720  53.2166 160.0870 0001344  92.4444 267.6702 15.08863851 60675,6917.807,95.436,540.602,538.743,0.0
51720.0,STARLINK-3526,PAYLOAD,2023-03-21 05:43:41,15.0883725,0.0001097,53.2157,157.409,114.2128,245.8979,0.00028745,4.29e-05,0.0,0 STARLINK-3526,1 51720U 22016G   23080.23867753  .00004290  00000-0  28745-3 0  9994,2 51720  53.2157 157.4090 0001097 114.2128 245.8979 15.08837250 60764,6917.889,95.438,540.513,538.995,0.0
51720.0,STARLINK-3526,PAYLOAD,2023-03-21 10:29:50,15.08850112,0.0001337,53.2159,156.5192,87.3563,272.7582,0.00040828,6.218e-05,0.0,0 STARLINK-3526,1 51720U 22016G   23080.43739488  .00006218  00000-0  40828-3 0  9997,2 51720  53.2159 156.5192 0001337  87.3563 272.7582 15.08850112 59735,6917.849,95.437,540.639,538.79,0.0
